{
  "type": "FeatureCollection",
  "features": [
    {
      "type": "Feature",
      "properties": {
        "norad_id": 66968,
        "name": "STARLINK-36152",
        "group": "last-30-days",
        "lat": 13.320402634663054,
        "lon": -110.9528596064665,
        "alt_km": 384.9362487161343,
        "timestamp": "2025-12-26T10:30:48.976882+00:00",
        "meta_object_name": "STARLINK-36152",
        "meta_object_id": "2025-288K",
        "meta_epoch": "2025-12-26T04:00:01.998720",
        "meta_mean_motion": 15.61565028,
        "meta_eccentricity": 0.0001433,
        "meta_inclination": 43,
        "meta_ra_of_asc_node": 85.3791,
        "meta_arg_of_pericenter": 281.5352,
        "meta_mean_anomaly": 151.8004,
        "meta_ephemeris_type": 0,
        "meta_classification_type": "U",
        "meta_norad_cat_id": 66968,
        "meta_element_set_no": 999,
        "meta_rev_at_epoch": 398,
        "meta_bstar": -0.025191,
        "meta_mean_motion_dot": -0.01958205,
        "meta_mean_motion_ddot": 0,
        "tle_line1": "1 66968U 25288K   25360.16668980 -.01958205  00000+0 -25191-1 0  9990",
        "tle_line2": "2 66968  43.0000  85.3791 0001433 281.5352 151.8004 15.61565028  3982"
      },
      "geometry": {
        "type": "Point",
        "coordinates": [
          -110.9528596064665,
          13.320402634663054
        ]
      }
    },
    {
      "type": "Feature",
      "properties": {
        "norad_id": 66969,
        "name": "STARLINK-36149",
        "group": "last-30-days",
        "lat": 6.911573333975596,
        "lon": -103.73325768725897,
        "alt_km": 385.67907188621393,
        "timestamp": "2025-12-26T10:30:48.976894+00:00",
        "meta_object_name": "STARLINK-36149",
        "meta_object_id": "2025-288L",
        "meta_epoch": "2025-12-26T04:00:01.998720",
        "meta_mean_motion": 15.61561047,
        "meta_eccentricity": 0.000139,
        "meta_inclination": 42.9999,
        "meta_ra_of_asc_node": 85.3539,
        "meta_arg_of_pericenter": 279.6061,
        "meta_mean_anomaly": 163.3143,
        "meta_ephemeris_type": 0,
        "meta_classification_type": "U",
        "meta_norad_cat_id": 66969,
        "meta_element_set_no": 999,
        "meta_rev_at_epoch": 398,
        "meta_bstar": -0.025142,
        "meta_mean_motion_dot": -0.01954562,
        "meta_mean_motion_ddot": 0,
        "tle_line1": "1 66969U 25288L   25360.16668980 -.01954562  00000+0 -25142-1 0  9999",
        "tle_line2": "2 66969  42.9999  85.3539 0001390 279.6061 163.3143 15.61561047  3984"
      },
      "geometry": {
        "type": "Point",
        "coordinates": [
          -103.73325768725897,
          6.911573333975596
        ]
      }
    },
    {
      "type": "Feature",
      "properties": {
        "norad_id": 66970,
        "name": "STARLINK-35703",
        "group": "last-30-days",
        "lat": 1.6990668929115489,
        "lon": -98.10245828498006,
        "alt_km": 386.247089843695,
        "timestamp": "2025-12-26T10:30:48.976905+00:00",
        "meta_object_name": "STARLINK-35703",
        "meta_object_id": "2025-288M",
        "meta_epoch": "2025-12-26T04:00:01.998720",
        "meta_mean_motion": 15.61573217,
        "meta_eccentricity": 0.000126,
        "meta_inclination": 42.9999,
        "meta_ra_of_asc_node": 85.3344,
        "meta_arg_of_pericenter": 279.6905,
        "meta_mean_anomaly": 170.8961,
        "meta_ephemeris_type": 0,
        "meta_classification_type": "U",
        "meta_norad_cat_id": 66970,
        "meta_element_set_no": 999,
        "meta_rev_at_epoch": 398,
        "meta_bstar": -0.025425,
        "meta_mean_motion_dot": -0.01974561,
        "meta_mean_motion_ddot": 0,
        "tle_line1": "1 66970U 25288M   25360.16668980 -.01974561  00000+0 -25425-1 0  9996",
        "tle_line2": "2 66970  42.9999  85.3344 0001260 279.6905 170.8961 15.61573217  3986"
      },
      "geometry": {
        "type": "Point",
        "coordinates": [
          -98.10245828498006,
          1.6990668929115489
        ]
      }
    },
    {
      "type": "Feature",
      "properties": {
        "norad_id": 66971,
        "name": "STARLINK-35678",
        "group": "last-30-days",
        "lat": 12.050797406275079,
        "lon": -109.4812785781135,
        "alt_km": 385.0475401089816,
        "timestamp": "2025-12-26T10:30:48.976915+00:00",
        "meta_object_name": "STARLINK-35678",
        "meta_object_id": "2025-288N",
        "meta_epoch": "2025-12-26T04:00:01.998720",
        "meta_mean_motion": 15.61555913,
        "meta_eccentricity": 0.0001582,
        "meta_inclination": 43.0001,
        "meta_ra_of_asc_node": 85.3753,
        "meta_arg_of_pericenter": 275.9782,
        "meta_mean_anomaly": 159.2842,
        "meta_ephemeris_type": 0,
        "meta_classification_type": "U",
        "meta_norad_cat_id": 66971,
        "meta_element_set_no": 999,
        "meta_rev_at_epoch": 398,
        "meta_bstar": -0.025061,
        "meta_mean_motion_dot": -0.01948756,
        "meta_mean_motion_ddot": 0,
        "tle_line1": "1 66971U 25288N   25360.16668980 -.01948756  00000+0 -25061-1 0  9990",
        "tle_line2": "2 66971  43.0001  85.3753 0001582 275.9782 159.2842 15.61555913  3988"
      },
      "geometry": {
        "type": "Point",
        "coordinates": [
          -109.4812785781135,
          12.050797406275079
        ]
      }
    },
    {
      "type": "Feature",
      "properties": {
        "norad_id": 66972,
        "name": "STARLINK-34846",
        "group": "last-30-days",
        "lat": 10.778268996650443,
        "lon": -108.0307005582761,
        "alt_km": 385.22934142142003,
        "timestamp": "2025-12-26T10:30:48.976928+00:00",
        "meta_object_name": "STARLINK-34846",
        "meta_object_id": "2025-288P",
        "meta_epoch": "2025-12-26T04:00:01.998720",
        "meta_mean_motion": 15.61563227,
        "meta_eccentricity": 0.0001557,
        "meta_inclination": 42.9997,
        "meta_ra_of_asc_node": 85.3701,
        "meta_arg_of_pericenter": 278.3261,
        "meta_mean_anomaly": 158.841,
        "meta_ephemeris_type": 0,
        "meta_classification_type": "U",
        "meta_norad_cat_id": 66972,
        "meta_element_set_no": 999,
        "meta_rev_at_epoch": 398,
        "meta_bstar": -0.025112,
        "meta_mean_motion_dot": -0.01952759,
        "meta_mean_motion_ddot": 0,
        "tle_line1": "1 66972U 25288P   25360.16668980 -.01952759  00000+0 -25112-1 0  9996",
        "tle_line2": "2 66972  42.9997  85.3701 0001557 278.3261 158.8410 15.61563227  3988"
      },
      "geometry": {
        "type": "Point",
        "coordinates": [
          -108.0307005582761,
          10.778268996650443
        ]
      }
    },
    {
      "type": "Feature",
      "properties": {
        "norad_id": 66973,
        "name": "STARLINK-35778",
        "group": "last-30-days",
        "lat": 9.492996959385415,
        "lon": -106.58516772664521,
        "alt_km": 385.4282061750091,
        "timestamp": "2025-12-26T10:30:48.976938+00:00",
        "meta_object_name": "STARLINK-35778",
        "meta_object_id": "2025-288Q",
        "meta_epoch": "2025-12-26T04:00:01.998720",
        "meta_mean_motion": 15.61564576,
        "meta_eccentricity": 0.0001389,
        "meta_inclination": 42.9997,
        "meta_ra_of_asc_node": 85.3652,
        "meta_arg_of_pericenter": 283.0127,
        "meta_mean_anomaly": 156.0727,
        "meta_ephemeris_type": 0,
        "meta_classification_type": "U",
        "meta_norad_cat_id": 66973,
        "meta_element_set_no": 999,
        "meta_rev_at_epoch": 398,
        "meta_bstar": -0.025188,
        "meta_mean_motion_dot": -0.01957926,
        "meta_mean_motion_ddot": 0,
        "tle_line1": "1 66973U 25288Q   25360.16668980 -.01957926  00000+0 -25188-1 0  9991",
        "tle_line2": "2 66973  42.9997  85.3652 0001389 283.0127 156.0727 15.61564576  3980"
      },
      "geometry": {
        "type": "Point",
        "coordinates": [
          -106.58516772664521,
          9.492996959385415
        ]
      }
    },
    {
      "type": "Feature",
      "properties": {
        "norad_id": 66974,
        "name": "STARLINK-35780",
        "group": "last-30-days",
        "lat": 8.203755745815286,
        "lon": -105.15280858100492,
        "alt_km": 385.5700392967992,
        "timestamp": "2025-12-26T10:30:48.976948+00:00",
        "meta_object_name": "STARLINK-35780",
        "meta_object_id": "2025-288R",
        "meta_epoch": "2025-12-26T04:00:01.998720",
        "meta_mean_motion": 15.61569642,
        "meta_eccentricity": 0.000134,
        "meta_inclination": 43.0002,
        "meta_ra_of_asc_node": 85.36,
        "meta_arg_of_pericenter": 282.9069,
        "meta_mean_anomaly": 158.0937,
        "meta_ephemeris_type": 0,
        "meta_classification_type": "U",
        "meta_norad_cat_id": 66974,
        "meta_element_set_no": 999,
        "meta_rev_at_epoch": 398,
        "meta_bstar": -0.025311,
        "meta_mean_motion_dot": -0.01966635,
        "meta_mean_motion_ddot": 0,
        "tle_line1": "1 66974U 25288R   25360.16668980 -.01966635  00000+0 -25311-1 0  9997",
        "tle_line2": "2 66974  43.0002  85.3600 0001340 282.9069 158.0937 15.61569642  3987"
      },
      "geometry": {
        "type": "Point",
        "coordinates": [
          -105.15280858100492,
          8.203755745815286
        ]
      }
    }
  ]
}